TRANSPORTER-12 OBJECT AZ
1 62656U 25009AZ  26068.71026235  .00016057  00000+0  54903-3 0  9991
2 62656  97.3981 151.9913 0000987  45.3581 314.7740 15.30349724 63792
STARLINK-32882          
1 62963U 25029R   26068.71755461 -.00001986  00000+0 -54998-4 0  9996
2 62963  53.1598 230.0671 0000900  99.2402 260.8700 15.30177706 61358
